{
    "links": {
        "self": "http://www.neowsapp.com/rest/v1/neo/3445076?api_key=iIulBulltgU6a56xZRHN4H3l9WmuAYTsLGpBGhQ2"
    },
    "id": "3445076",
    "neo_reference_id": "3445076",
    "name": "(2009 BL58)",
    "designation": "2009 BL58",
    "nasa_jpl_url": "http://ssd.jpl.nasa.gov/sbdb.cgi?sstr=3445076",
    "absolute_magnitude_h": 24.7,
    "estimated_diameter": {
        "kilometers": {
            "estimated_diameter_min": 0.0305179233,
            "estimated_diameter_max": 0.0682401509
        },
        "meters": {
            "estimated_diameter_min": 30.5179232594,
            "estimated_diameter_max": 68.2401509401
        },
        "miles": {
            "estimated_diameter_min": 0.0189629525,
            "estimated_diameter_max": 0.0424024508
        },
        "feet": {
            "estimated_diameter_min": 100.1244233463,
            "estimated_diameter_max": 223.8850168104
        }
    },
    "is_potentially_hazardous_asteroid": false,
    "close_approach_data": [
        {
            "close_approach_date": "2009-02-11",
            "close_approach_date_full": "2009-Feb-11 09:33",
            "epoch_date_close_approach": 1234344780000,
            "relative_velocity": {
                "kilometers_per_second": "10.6452776243",
                "kilometers_per_hour": "38322.9994476496",
                "miles_per_hour": "23812.421517902"
            },
            "miss_distance": {
                "astronomical": "0.0121764505",
                "lunar": "4.7366392445",
                "kilometers": "1821571.058960435",
                "miles": "1131871.770446603"
            },
            "orbiting_body": "Earth"
        }
    ],
    "orbital_data": {
        "orbit_id": "13",
        "orbit_determination_date": "2017-04-06 09:01:32",
        "first_observation_date": "2009-01-29",
        "last_observation_date": "2009-02-11",
        "data_arc_in_days": 13,
        "observations_used": 84,
        "orbit_uncertainty": "8",
        "minimum_orbit_intersection": ".00691907",
        "jupiter_tisserand_invariant": "4.071",
        "epoch_osculation": "2454863.5",
        "eccentricity": ".4693147844872744",
        "semi_major_axis": "1.696129562548711",
        "inclination": "5.481221537521273",
        "ascending_node_longitude": "320.0599057438208",
        "orbital_period": "806.839148625853",
        "perihelion_distance": ".9001108824386678",
        "perihelion_argument": "228.1543160158319",
        "aphelion_distance": "2.492148242658755",
        "perihelion_time": "2454908.300070338966",
        "mean_anomaly": "340.0108542706489",
        "mean_motion": ".4461855880606743",
        "equinox": "J2000",
        "orbit_class": {
            "orbit_class_type": "APO",
            "orbit_class_description": "Near-Earth asteroid orbits which cross the Earth’s orbit similar to that of 1862 Apollo",
            "orbit_class_range": "a (semi-major axis) > 1.0 AU; q (perihelion) < 1.017 AU"
        }
    },
    "is_sentry_object": false
}